[{"OBJECT_NAME":"GEESAT-4 08","OBJECT_ID":"2025-170H","EPOCH":"2026-03-09T21:04:12.427104","MEAN_MOTION":15.14705127,"ECCENTRICITY":0.00114102,"INCLINATION":49.9764,"RA_OF_ASC_NODE":229.0077,"ARG_OF_PERICENTER":340.9051,"MEAN_ANOMALY":19.1471,"EPHEMERIS_TYPE":0,"CLASSIFICATION_TYPE":"U","NORAD_CAT_ID":65126,"ELEMENT_SET_NO":999,"REV_AT_EPOCH":3229,"BSTAR":0.00074081208,"MEAN_MOTION_DOT":0.00013648,"MEAN_MOTION_DDOT":0},{"OBJECT_NAME":"IRIDIUM 45","OBJECT_ID":"1997-082A","EPOCH":"2026-03-09T19:43:04.689120","MEAN_MOTION":15.36676082,"ECCENTRICITY":0.00899413,"INCLINATION":86.3479,"RA_OF_ASC_NODE":277.5722,"ARG_OF_PERICENTER":47.6509,"MEAN_ANOMALY":313.2314,"EPHEMERIS_TYPE":0,"CLASSIFICATION_TYPE":"U","NORAD_CAT_ID":25104,"ELEMENT_SET_NO":999,"REV_AT_EPOCH":49262,"BSTAR":0.00064625537,"MEAN_MOTION_DOT":0.00026618,"MEAN_MOTION_DDOT":0}]
